NORAD_CAT_ID,OBJECT_NAME,OBJECT_TYPE,EPOCH,MEAN_MOTION,ECCENTRICITY,INCLINATION,RA_OF_ASC_NODE,ARG_OF_PERICENTER,MEAN_ANOMALY,BSTAR,MEAN_MOTION_DOT,MEAN_MOTION_DDOT,TLE_LINE0,TLE_LINE1,TLE_LINE2,SEMIMAJOR_AXIS,PERIOD,APOGEE,PERIGEE,DECAYED
53149.0,STARLINK-4021,PAYLOAD,2023-02-24 12:21:37,15.08835664,0.0001503,53.2157,103.3958,80.1507,279.9655,-0.00010108,-1.896e-05,0.0,0 STARLINK-4021,1 53149U 22083T   23055.51501588 -.00001896  00000-0 -10108-3 0  9994,2 53149  53.2157 103.3958 0001503  80.1507 279.9655 15.08835664 34541,6917.894,95.438,540.798,538.719,0.0
53149.0,STARLINK-4021,PAYLOAD,2023-02-24 20:18:33,15.08823453,0.0001472,53.216,101.9091,87.3846,272.7315,-0.00025863,-4.4e-05,0.0,0 STARLINK-4021,1 53149U 22083T   23055.84622105 -.00004400  00000-0 -25863-3 0  9997,2 53149  53.2160 101.9091 0001472  87.3846 272.7315 15.08823453 33969,6917.931,95.439,540.814,538.778,0.0
53149.0,STARLINK-4021,PAYLOAD,2023-02-25 20:09:21,15.08830097,0.0001442,53.2162,97.4501,84.0654,276.0503,0.00029769,4.452e-05,0.0,0 STARLINK-4021,1 53149U 22083T   23056.83983298  .00004452  00000-0  29769-3 0  9994,2 53149  53.2162  97.4501 0001442  84.0654 276.0503 15.08830097 34110,6917.911,95.438,540.773,538.778,0.0
53149.0,STARLINK-4021,PAYLOAD,2023-02-26 10:27:49,15.08868837,0.0001281,53.216,94.7732,83.1237,276.9901,0.0014376,0.00022684,0.0,0 STARLINK-4021,1 53149U 22083T   23057.43598584  .00022684  00000-0  14376-2 0  9995,2 53149  53.2160  94.7732 0001281  83.1237 276.9901 15.08868837 34835,6917.792,95.436,540.543,538.771,0.0
53149.0,STARLINK-4021,PAYLOAD,2023-02-26 12:03:12,15.08873861,0.0001287,53.2159,94.4754,84.5957,275.5182,0.0015269,0.00024119,0.0,0 STARLINK-4021,1 53149U 22083T   23057.50222414  .00024119  00000-0  15269-2 0  9996,2 53149  53.2159  94.4754 0001287  84.5957 275.5182 15.08873861 34215,6917.777,95.435,540.532,538.752,0.0
53149.0,STARLINK-4021,PAYLOAD,2023-02-26 20:00:08,15.08851359,0.0001567,53.2163,92.9888,91.5257,268.5915,0.00011431,1.532e-05,0.0,0 STARLINK-4021,1 53149U 22083T   23057.83342708  .00001532  00000-0  11431-3 0  9993,2 53149  53.2163  92.9888 0001567  91.5257 268.5915 15.08851359 34891,6917.846,95.437,540.795,538.627,0.0
53149.0,STARLINK-4021,PAYLOAD,2023-02-27 11:53:59,15.0884771,0.0001641,53.217,90.0154,112.2296,247.8871,0.0016013,0.00025294,0.0,0 STARLINK-4021,1 53149U 22083T   23058.49582926  .00025294  00000-0  16013-2 0  9995,2 53149  53.2170  90.0154 0001641 112.2296 247.8871 15.08847710 34999,6917.857,95.437,540.857,538.587,0.0
53149.0,STARLINK-4021,PAYLOAD,2023-02-27 13:29:22,15.08883241,0.0001521,53.2168,89.7178,107.4891,252.6267,0.0023377,0.00037157,0.0,0 STARLINK-4021,1 53149U 22083T   23058.56206516  .00037157  00000-0  23377-2 0  9993,2 53149  53.2168  89.7178 0001521 107.4891 252.6267 15.08883241 35006,6917.748,95.435,540.665,538.561,0.0
53149.0,STARLINK-4021,PAYLOAD,2023-02-28 11:44:46,15.08859283,0.00014,53.2169,85.5552,108.2892,251.8252,0.0016497,0.00026078,0.0,0 STARLINK-4021,1 53149U 22083T   23059.48943073  .00026078  00000-0  16497-2 0  9996,2 53149  53.2169  85.5552 0001400 108.2892 251.8252 15.08859283 35142,6917.821,95.436,540.655,538.718,0.0
53149.0,STARLINK-4021,PAYLOAD,2023-02-28 18:06:20,15.08810668,0.0002331,53.217,84.3656,80.8905,279.2351,0.00033718,5.078e-05,0.0,0 STARLINK-4021,1 53149U 22083T   23059.75440375  .00005078  00000-0  33718-3 0  9996,2 53149  53.2170  84.3656 0002331  80.8905 279.2351 15.08810668 34552,6917.97,95.439,541.448,538.222,0.0
53149.0,STARLINK-4021,PAYLOAD,2023-03-01 17:57:08,15.08835998,9.69e-05,53.2171,79.9057,80.3414,279.7687,0.0014624,0.0002306,0.0,0 STARLINK-4021,1 53149U 22083T   23060.74801223  .00023060  00000-0  14624-2 0  9995,2 53149  53.2171  79.9057 0000969  80.3414 279.7687 15.08835998 35330,6917.893,95.438,540.428,539.087,0.0
53149.0,STARLINK-4021,PAYLOAD,2023-03-01 21:07:54,15.08841854,9.33e-05,53.2174,79.3115,87.4208,272.6891,0.0014311,0.00022562,0.0,0 STARLINK-4021,1 53149U 22083T   23060.88049197  .00022562  00000-0  14311-2 0  9993,2 53149  53.2174  79.3115 0000933  87.4208 272.6891 15.08841854 34721,6917.875,95.437,540.385,539.094,0.0
53149.0,STARLINK-4021,PAYLOAD,2023-03-02 17:47:54,15.08862959,9.66e-05,53.2173,75.4448,102.4042,257.7058,0.0008719,0.00013624,0.0,0 STARLINK-4021,1 53149U 22083T   23061.74160208  .00013624  00000-0  87190-3 0  9991,2 53149  53.2173  75.4448 0000966 102.4042 257.7058 15.08862959 35488,6917.81,95.436,540.343,539.007,0.0
53149.0,STARLINK-4021,PAYLOAD,2023-03-03 08:06:21,15.08877413,0.000107,53.2166,72.7692,96.8641,263.2473,0.0017083,0.00027032,0.0,0 STARLINK-4021,1 53149U 22083T   23062.33775352  .00027032  00000-0  17083-2 0  9990,2 53149  53.2166  72.7692 0001070  96.8641 263.2473 15.08877413 34943,6917.766,95.435,540.371,538.891,0.0
53149.0,STARLINK-4021,PAYLOAD,2023-03-03 17:38:40,15.08851819,0.0001262,53.2164,70.9847,92.3072,267.8065,0.00028947,4.323e-05,0.0,0 STARLINK-4021,1 53149U 22083T   23062.73519267  .00004323  00000-0  28947-3 0  9995,2 53149  53.2164  70.9847 0001262  92.3072 267.8065 15.08851819 35631,6917.844,95.437,540.582,538.836,0.0
53149.0,STARLINK-4021,PAYLOAD,2023-03-04 12:43:17,15.0886716,0.000144,53.2169,67.413,86.0718,274.0439,0.0014953,0.00023608,0.0,0 STARLINK-4021,1 53149U 22083T   23063.53006575  .00023608  00000-0  14953-2 0  9995,2 53149  53.2169  67.4130 0001440  86.0718 274.0439 15.08867160 35122,6917.797,95.436,540.659,538.666,0.0
53149.0,STARLINK-4021,PAYLOAD,2023-03-04 17:29:27,15.08829589,8.19e-05,53.2181,66.5237,74.4192,285.689,-5.8577e-05,-1.219e-05,0.0,0 STARLINK-4021,1 53149U 22083T   23063.72879123 -.00001219  00000-0 -58577-4 0  9991,2 53149  53.2181  66.5237 0000819  74.4192 285.6890 15.08829589 35784,6917.912,95.438,540.344,539.211,0.0
53149.0,STARLINK-4021,PAYLOAD,2023-03-05 06:12:33,15.08834364,9.43e-05,53.2173,64.1445,75.0717,285.0379,0.0015627,0.00024666,0.0,0 STARLINK-4021,1 53149U 22083T   23064.25871736  .00024666  00000-0  15627-2 0  9998,2 53149  53.2173  64.1445 0000943  75.0717 285.0379 15.08834364 35231,6917.898,95.438,540.415,539.11,0.0
53149.0,STARLINK-4021,PAYLOAD,2023-03-06 02:52:34,15.08854478,0.0001233,53.2164,60.2797,65.9822,294.1299,0.0013083,0.00020603,0.0,0 STARLINK-4021,1 53149U 22083T   23065.11983862  .00020603  00000-0  13083-2 0  9999,2 53149  53.2164  60.2797 0001233  65.9822 294.1299 15.08854478 35999,6917.836,95.437,540.554,538.848,0.0
53149.0,STARLINK-4021,PAYLOAD,2023-03-06 10:49:28,15.08882625,0.0001284,53.2166,58.7925,69.2487,290.8643,0.0017523,0.00027743,0.0,0 STARLINK-4021,1 53149U 22083T   23065.45102996  .00027743  00000-0  17523-2 0  9992,2 53149  53.2166  58.7925 0001284  69.2487 290.8643 15.08882625 36044,6917.75,95.435,540.503,538.727,0.0
53149.0,STARLINK-4021,PAYLOAD,2023-03-07 05:54:07,15.0885195,0.0001099,53.2181,55.2238,97.8879,262.2238,0.0011288,0.00017728,0.0,0 STARLINK-4021,1 53149U 22083T   23066.24591693  .00017728  00000-0  11288-2 0  9990,2 53149  53.2181  55.2238 0001099  97.8879 262.2238 15.08851950 36169,6917.844,95.437,540.469,538.949,0.0
53149.0,STARLINK-4021,PAYLOAD,2023-03-07 10:40:16,15.08865147,0.0001031,53.2184,54.3314,98.0262,262.0848,0.0026644,0.000424,0.0,0 STARLINK-4021,1 53149U 22083T   23066.44463714  .00042400  00000-0  26644-2 0  9991,2 53149  53.2184  54.3314 0001031  98.0262 262.0848 15.08865147 36193,6917.804,95.436,540.382,538.955,0.0
53149.0,STARLINK-4021,PAYLOAD,2023-03-08 02:34:08,15.08849852,0.0001076,53.2179,51.3574,113.27,246.8405,0.001567,0.00024745,0.0,0 STARLINK-4021,1 53149U 22083T   23067.10704163  .00024745  00000-0  15670-2 0  9990,2 53149  53.2179  51.3574 0001076 113.2700 246.8405 15.08849852 36293,6917.85,95.437,540.46,538.971,0.0
53149.0,STARLINK-4021,PAYLOAD,2023-03-08 15:17:13,15.08845432,0.000122,53.2184,48.979,95.1761,264.9371,0.00071301,0.00011079,0.0,0 STARLINK-4021,1 53149U 22083T   23067.63696212  .00011079  00000-0  71301-3 0  9993,2 53149  53.2184  48.9790 0001220  95.1761 264.9371 15.08845432 36379,6917.864,95.437,540.573,538.885,0.0
53149.0,STARLINK-4021,PAYLOAD,2023-03-09 02:24:55,15.08873215,8.78e-05,53.2184,46.8975,112.8462,247.2623,0.0030029,0.00047871,0.0,0 STARLINK-4021,1 53149U 22083T   23068.10063938  .00047871  00000-0  30029-2 0  9999,2 53149  53.2184  46.8975 0000878 112.8462 247.2623 15.08873215 36446,6917.779,95.435,540.251,539.036,0.0
53149.0,STARLINK-4021,PAYLOAD,2023-03-09 08:46:27,15.0888484,9.26e-05,53.218,45.7088,111.6596,248.4495,0.0030452,0.0004857,0.0,0 STARLINK-4021,1 53149U 22083T   23068.36559435  .00048570  00000-0  30452-2 0  9996,2 53149  53.2180  45.7088 0000926 111.6596 248.4495 15.08884840 36484,6917.743,95.435,540.249,538.968,0.0
53149.0,STARLINK-4021,PAYLOAD,2023-03-10 03:51:04,15.08875339,0.0001618,53.2188,42.1403,143.8599,216.2503,0.0026593,0.0004233,0.0,0 STARLINK-4021,1 53149U 22083T   23069.16047276  .00042330  00000-0  26593-2 0  9999,2 53149  53.2188  42.1403 0001618 143.8599 216.2503 15.08875339 36603,6917.772,95.435,540.757,538.518,0.0
53149.0,STARLINK-4021,PAYLOAD,2023-03-10 08:37:14,15.08877022,9.03e-05,53.2188,41.2482,88.0655,272.0441,0.0022034,0.00034989,0.0,0 STARLINK-4021,1 53149U 22083T   23069.35919196  .00034989  00000-0  22034-2 0  9996,2 53149  53.2188  41.2482 0000903  88.0655 272.0441 15.08877022 36634,6917.767,95.435,540.257,539.008,0.0
53149.0,STARLINK-4021,PAYLOAD,2023-03-10 14:58:47,15.08842377,0.0001787,53.2191,40.0594,68.3282,291.7901,0.00078069,0.00012159,0.0,0 STARLINK-4021,1 53149U 22083T   23069.62415867  .00012159  00000-0  78069-3 0  9997,2 53149  53.2191  40.0594 0001787  68.3282 291.7901 15.08842377 36675,6917.873,95.437,540.974,538.502,0.0
53149.0,STARLINK-4021,PAYLOAD,2023-03-11 02:06:29,15.08828512,0.0001082,53.2187,37.9787,70.0652,290.0457,0.0010597,0.00016612,0.0,0 STARLINK-4021,1 53149U 22083T   23070.08784381  .00016612  00000-0  10597-2 0  9998,2 53149  53.2187  37.9787 0001082  70.0652 290.0457 15.08828512 36749,6917.916,95.438,540.529,539.032,0.0
